OBJECT_NAME,OBJECT_ID,EPOCH,MEAN_MOTION,ECCENTRICITY,INCLINATION,RA_OF_ASC_NODE,ARG_OF_PERICENTER,MEAN_ANOMALY,EPHEMERIS_TYPE,CLASSIFICATION_TYPE,NORAD_CAT_ID,ELEMENT_SET_NO,REV_AT_EPOCH,BSTAR,MEAN_MOTION_DOT,MEAN_MOTION_DDOT
ONEWEB-0578,2023-043X,2026-07-15T11:43:50.973024,13.21826929,.00021166,87.9240,238.3404,89.2470,270.8907,0,U,56067,999,16197,.28325072E-3,.13E-5,0
ONEWEB-0579,2023-043Y,2026-07-15T04:15:41.400000,13.21827650,.00020867,87.9242,238.4011,103.4428,256.6939,0,U,56068,999,16194,-.71806906E-4,-.17E-6,0
ONEWEB-0581,2023-043Z,2026-07-15T11:55:51.712320,13.16595379,.00015139,87.9072,223.1608,89.9275,270.2030,0,U,56069,999,16268,.10462832E-4,.17E-6,0
ONEWEB-0609,2023-043AA,2026-07-15T13:13:06.253248,13.15547092,.00021483,87.8985,253.5596,97.2988,262.8386,0,U,56070,999,16016,-.14499922E-3,-.42E-6,0
ONEWEB-0613,2023-043AB,2026-07-15T13:09:41.080032,13.15547349,.00022057,87.8984,253.5726,104.3410,255.7966,0,U,56071,999,16016,.19887226E-3,.88E-6,0
ONEWEB-0630,2023-043AC,2026-07-15T13:02:49.883424,13.15549414,.00021454,87.8992,253.5468,104.4204,255.7164,0,U,56072,999,16015,.31916355E-3,.133E-5,0
ONEWEB-0632,2023-043AD,2026-07-15T12:56:00.067488,13.15547874,.0001869,87.8987,253.5644,99.2854,260.8488,0,U,56073,999,16015,.49228768E-3,.198E-5,0
ONEWEB-0633,2023-043AE,2026-07-15T12:46:52.283712,13.15548925,.00024195,87.8996,253.5432,106.8631,253.2765,0,U,56074,999,16013,.55290405E-3,.221E-5,0
ONEWEB-0634,2023-043AF,2026-07-15T12:26:20.300928,13.15547741,.0002281,87.8983,253.5847,91.6402,268.4989,0,U,56075,999,16012,.12194842E-3,.59E-6,0
ONEWEB-0635,2023-043AG,2026-07-15T05:01:23.901888,13.15547888,.00017997,87.8991,253.6112,98.2128,261.9206,0,U,56076,999,16011,.89118904E-4,.46E-6,0
ONEWEB-0636,2023-043AH,2026-07-15T04:49:58.888992,13.15547876,.00018794,87.8991,253.6182,96.6614,263.4731,0,U,56077,999,16009,-.17820648E-3,-.54E-6,0
ONEWEB-0637,2023-043AJ,2026-07-15T02:51:20.153664,13.15548226,.0001961,87.8982,253.6491,89.6959,270.4396,0,U,56078,999,16010,-.16630534E-3,-.5E-6,0
ONEWEB-0647,2023-043AK,2026-07-15T04:34:00.600672,13.15549240,.00019729,87.8983,253.6477,100.8549,259.2804,0,U,56079,999,16010,-.21503508E-3,-.68E-6,0
ONEWEB-0651,2023-043AL,2026-07-15T13:34:47.230752,13.15548316,.00018521,87.8984,253.5659,93.1899,266.9443,0,U,56080,999,16135,.30215761E-4,.24E-6,0
ONEWEB-0718,2023-043AM,2026-07-15T13:27:55.949472,13.15549277,.00025179,87.8989,253.5473,92.3018,267.8401,0,U,56081,999,16016,-.22777605E-3,-.73E-6,0
ONEWEB-0561,2023-068A,2026-07-15T05:27:51.335136,13.20769881,.00017585,87.9186,268.8559,104.1280,256.0049,0,U,56710,999,15320,.19870253E-3,.94E-6,0
ONEWEB-0668,2023-068B,2026-07-15T13:08:49.399008,13.16594677,.00023358,87.9081,223.1386,79.4303,280.7091,0,U,56711,999,15551,-.29557571E-4,.2E-7,0
ONEWEB-0676,2023-068C,2026-07-15T11:30:47.814048,13.16594483,.00017341,87.9080,223.1588,91.8525,268.2804,0,U,56712,999,15542,.57044216E-4,.35E-6,0
ONEWEB-0677,2023-068D,2026-07-15T05:10:54.427008,13.20772049,.00018583,87.9186,268.8491,89.4020,270.7327,0,U,56713,999,15350,.15998361E-3,.78E-6,0
ONEWEB-0678,2023-068E,2026-07-15T12:42:18.570240,13.15547683,.00020478,87.8993,253.5486,105.5837,254.5519,0,U,56714,999,15301,.41022598E-3,.167E-5,0
ONEWEB-0679,2023-068F,2026-07-15T12:20:56.901408,13.16594068,.00019562,87.9079,223.1432,77.6400,282.4950,0,U,56715,999,15545,.23108398E-3,.101E-5,0
ONEWEB-0680,2023-068G,2026-07-15T11:34:08.383008,13.21825380,.0002245,87.9242,238.3420,80.9577,279.1811,0,U,56716,999,15483,-.59795785E-4,-.12E-6,0
ONEWEB-0681,2023-068H,2026-07-15T12:55:16.764672,13.21827659,.000109,87.9237,238.3311,93.4869,266.6389,0,U,56717,999,15483,.14703235E-3,.74E-6,0
ONEWEB-0682,2023-068J,2026-07-15T13:16:32.181600,13.15548221,.0002178,87.8993,253.5436,82.5614,277.5764,0,U,56718,999,15318,.5186289E-5,.15E-6,0
ONEWEB-0683,2023-068K,2026-07-15T04:43:08.471712,13.15548326,.00022471,87.8993,253.6154,92.3330,267.8058,0,U,56719,999,15310,-.22447648E-3,-.72E-6,0
ONEWEB-0684,2023-068L,2026-07-15T04:54:32.714784,13.15549594,.00030238,87.8990,253.6032,119.7031,240.4401,0,U,56720,999,15293,.66433584E-4,.38E-6,0
ONEWEB-0686,2023-068M,2026-07-15T11:23:57.477984,13.16594085,.0002405,87.9074,223.1717,92.4257,267.7149,0,U,56721,999,15543,-.33421572E-4,0,0
ONEWEB-0694,2023-068N,2026-07-15T11:33:04.626720,13.16593525,.00022829,87.9092,223.1408,82.2342,277.9048,0,U,56722,999,15549,-.71377895E-4,-.14E-6,0
ONEWEB-0696,2023-068P,2026-07-15T13:00:32.905728,13.15549593,.00020893,87.8985,253.5720,112.9290,247.2061,0,U,56723,999,15309,.29032448E-3,.122E-5,0
ONEWEB-0703,2023-068Q,2026-07-15T13:14:14.608608,13.15547559,.00017535,87.8988,253.5514,124.4705,235.6592,0,U,56724,999,15298,.1857329E-3,.83E-6,0
